{
  "type": "FeatureCollection",
  "features": [
    {
      "type": "Feature",
      "properties": {
        "norad_id": 66909,
        "name": "SILVERSAT",
        "group": "stations",
        "lat": 24.86681869378045,
        "lon": 110.50125541312418,
        "alt_km": 405.3759366107179,
        "timestamp": "2025-12-23T11:34:46.979472+00:00",
        "meta_object_name": "SILVERSAT",
        "meta_object_id": "1998-067XV",
        "meta_epoch": "2025-12-22T12:16:28.422912",
        "meta_mean_motion": 15.52898333,
        "meta_eccentricity": 0.0003866,
        "meta_inclination": 51.6306,
        "meta_ra_of_asc_node": 93.7929,
        "meta_arg_of_pericenter": 288.2093,
        "meta_mean_anomaly": 71.8476,
        "meta_ephemeris_type": 0,
        "meta_classification_type": "U",
        "meta_norad_cat_id": 66909,
        "meta_element_set_no": 999,
        "meta_rev_at_epoch": 313,
        "meta_bstar": 0.0011325313,
        "meta_mean_motion_dot": 0.00071888,
        "meta_mean_motion_ddot": 0,
        "tle_line1": "1 66909U 98067XV  25356.51144008  .00071888  00000+0  11325-2 0  9999",
        "tle_line2": "2 66909  51.6306  93.7929 0003866 288.2093  71.8476 15.52898333  3134"
      },
      "geometry": {
        "type": "Point",
        "coordinates": [
          110.50125541312418,
          24.86681869378045
        ]
      }
    },
    {
      "type": "Feature",
      "properties": {
        "norad_id": 66910,
        "name": "1998-067XW",
        "group": "stations",
        "lat": 31.710963374168216,
        "lon": 118.2474178028681,
        "alt_km": 405.9399871619653,
        "timestamp": "2025-12-23T11:34:46.979481+00:00",
        "meta_object_name": "1998-067XW",
        "meta_object_id": "1998-067XW",
        "meta_epoch": "2025-12-22T12:13:56.337312",
        "meta_mean_motion": 15.52855241,
        "meta_eccentricity": 0.00039884,
        "meta_inclination": 51.6304,
        "meta_ra_of_asc_node": 93.7808,
        "meta_arg_of_pericenter": 260.6768,
        "meta_mean_anomaly": 99.3771,
        "meta_ephemeris_type": 0,
        "meta_classification_type": "U",
        "meta_norad_cat_id": 66910,
        "meta_element_set_no": 999,
        "meta_rev_at_epoch": 313,
        "meta_bstar": 0.0010313397,
        "meta_mean_motion_dot": 0.00065266,
        "meta_mean_motion_ddot": 0,
        "tle_line1": "1 66910U 98067XW  25356.50967983  .00065266  00000+0  10313-2 0  9994",
        "tle_line2": "2 66910  51.6304  93.7808 0003988 260.6768  99.3771 15.52855241  3132"
      },
      "geometry": {
        "type": "Point",
        "coordinates": [
          118.2474178028681,
          31.710963374168216
        ]
      }
    },
    {
      "type": "Feature",
      "properties": {
        "norad_id": 66911,
        "name": "1998-067XX",
        "group": "stations",
        "lat": 43.08182840912035,
        "lon": 136.71045596588243,
        "alt_km": 402.95715702223606,
        "timestamp": "2025-12-23T11:34:46.979490+00:00",
        "meta_object_name": "1998-067XX",
        "meta_object_id": "1998-067XX",
        "meta_epoch": "2025-12-22T19:52:48.657216",
        "meta_mean_motion": 15.5335973,
        "meta_eccentricity": 0.0003678,
        "meta_inclination": 51.6306,
        "meta_ra_of_asc_node": 92.1584,
        "meta_arg_of_pericenter": 266.6308,
        "meta_mean_anomaly": 93.4262,
        "meta_ephemeris_type": 0,
        "meta_classification_type": "U",
        "meta_norad_cat_id": 66911,
        "meta_element_set_no": 999,
        "meta_rev_at_epoch": 317,
        "meta_bstar": 0.0011443,
        "meta_mean_motion_dot": 0.00073883,
        "meta_mean_motion_ddot": 0,
        "tle_line1": "1 66911U 98067XX  25356.82834094  .00073883  00000+0  11443-2 0  9995",
        "tle_line2": "2 66911  51.6306  92.1584 0003678 266.6308  93.4262 15.53359730  3178"
      },
      "geometry": {
        "type": "Point",
        "coordinates": [
          136.71045596588243,
          43.08182840912035
        ]
      }
    },
    {
      "type": "Feature",
      "properties": {
        "norad_id": 66912,
        "name": "1998-067XY",
        "group": "stations",
        "lat": -2.8591779851866517,
        "lon": 86.76597052337604,
        "alt_km": 410.86346936155496,
        "timestamp": "2025-12-23T11:34:46.979499+00:00",
        "meta_object_name": "1998-067XY",
        "meta_object_id": "1998-067XY",
        "meta_epoch": "2025-12-22T13:57:42.061248",
        "meta_mean_motion": 15.52056622,
        "meta_eccentricity": 0.00039127,
        "meta_inclination": 51.6324,
        "meta_ra_of_asc_node": 93.5129,
        "meta_arg_of_pericenter": 278.0711,
        "meta_mean_anomaly": 81.9835,
        "meta_ephemeris_type": 0,
        "meta_classification_type": "U",
        "meta_norad_cat_id": 66912,
        "meta_element_set_no": 999,
        "meta_rev_at_epoch": 313,
        "meta_bstar": 0.00086867978,
        "meta_mean_motion_dot": 0.0005325,
        "meta_mean_motion_ddot": 0,
        "tle_line1": "1 66912U 98067XY  25356.58173682  .00053250  00000+0  86868-3 0  9998",
        "tle_line2": "2 66912  51.6324  93.5129 0003912 278.0711  81.9835 15.52056622  3132"
      },
      "geometry": {
        "type": "Point",
        "coordinates": [
          86.76597052337604,
          -2.8591779851866517
        ]
      }
    }
  ]
}